MEAN_MOTION;ECCENTRICITY;INCLINATION;RA_OF_ASC_NODE;ARG_OF_PERICENTER;MEAN_ANOMALY;BSTAR;MEAN_MOTION_DOT;MEAN_MOTION_DDOT;TYPE
14.34220133;0.0002118;86.4014;349.6057;96.4609;263.6828;1.6851E-5;6.7E-7;0;Iridium
14.34220218;0.0002125;86.4014;349.4018;96.5623;263.5815;1.8196E-5;7.1E-7;0;Iridium
14.34220257;0.0002144;86.4014;349.1688;96.2145;263.9295;1.7365E-5;6.8E-7;0;Iridium
14.34220334;0.000215;86.4013;348.9941;95.8062;264.3379;1.8819E-5;7.2E-7;0;Iridium
14.34220377;0.000216;86.4013;348.7902;95.895;264.2492;1.8233E-5;7.1E-7;0;Iridium
14.34220416;0.0002168;86.4012;348.5863;95.6652;264.4791;1.8175E-5;7.1E-7;0;Iridium
14.34220551;0.0002182;86.4012;348.1784;95.7995;264.345;2.0804E-5;7.8E-7;0;Iridium
14.34220596;0.0002194;86.4011;347.9745;95.738;264.4066;2.0862E-5;7.8E-7;0;Iridium
14.34220536;0.0002193;86.4011;347.7705;95.5859;264.5587;1.7973E-5;7.0E-7;0;Iridium
14.34220565;0.00022;86.4011;347.5958;95.3356;264.8091;1.8251E-5;7.1E-7;0;Iridium
14.3421596;0.0002392;86.4018;347.362;88.9226;271.2244;2.2935E-5;8.4E-7;0;Iridium
14.34215777;0.0002265;86.401;346.9255;92.3581;267.7874;2.4492E-5;8.8E-7;0;Iridium
14.34215777;0.0002265;86.401;346.9255;92.3581;267.7874;2.4492E-5;8.8E-7;0;Iridium
14.34215921;0.0002277;86.4009;346.6924;93.5703;266.5753;2.44E-5;8.8E-7;0;Iridium
14.34216144;0.0002288;86.4009;346.2847;93.8425;266.3033;3.4169E-5;1.15E-6;0;Iridium
14.34216145;0.0002312;86.4008;345.9933;93.9897;266.1563;2.232E-5;8.2E-7;0;Iridium
14.34216156;0.0002312;86.4007;345.9642;93.9897;266.1563;2.243E-5;8.3E-7;0;Iridium
14.34216188;0.0002313;86.4007;345.8768;93.9462;266.1999;2.1401E-5;8.0E-7;0;Iridium
14.34216288;0.0002331;86.4006;345.5855;94.0573;266.0889;2.2477E-5;8.3E-7;0;Iridium
14.34216373;0.0002334;86.4005;345.4107;94.0213;266.1249;2.362E-5;8.6E-7;0;Iridium
14.34216422;0.0002345;86.4005;345.1485;93.732;266.4144;2.0617E-5;7.8E-7;0;Iridium
14.34216422;0.0002345;86.4005;345.1485;93.732;266.4144;2.0617E-5;7.8E-7;0;Iridium
14.34216482;0.0002351;86.4004;344.9737;93.7785;266.368;2.0522E-5;7.7E-7;0;Iridium
14.34216607;0.0002362;86.4003;344.7114;93.5392;266.6074;2.3552E-5;8.6E-7;0;Iridium
14.34216649;0.0002366;86.4003;344.5658;93.4296;266.717;2.3256E-5;8.5E-7;0;Iridium
14.34216702;0.0002374;86.4002;344.3035;93.153;266.9938;2.0565E-5;7.7E-7;0;Iridium
14.34216702;0.0002375;86.4002;344.2744;93.122;267.0247;1.978E-5;7.5E-7;0;Iridium
14.34216708;0.0002381;86.4002;344.1578;93.0776;267.0693;1.7228E-5;6.8E-7;0;Iridium
14.34216739;0.0002387;86.4001;343.9247;92.8826;267.2643;1.5582E-5;6.3E-7;0;Iridium
14.34216758;0.0002388;86.4001;343.8664;92.8134;267.3336;1.5905E-5;6.4E-7;0;Iridium
14.34216739;0.0002394;86.4001;343.7207;92.7215;267.4255;1.2893E-5;5.6E-7;0;Iridium
14.34216776;0.0002395;86.4001;343.6333;92.6707;267.4763;1.3487E-5;5.8E-7;0;Iridium
14.34216792;0.0002402;86.4;343.371;92.4857;267.6614;1.1231E-5;5.1E-7;0;Iridium
14.34216815;0.0002406;86.4;343.1962;92.2973;267.8498;1.1206E-5;5.1E-7;0;Iridium
14.34216841;0.0002413;86.3999;343.0505;91.9914;268.1558;1.2493E-5;5.5E-7;0;Iridium
14.34216888;0.0002418;86.3999;342.9048;92.0538;268.0934;1.435E-5;6.0E-7;0;Iridium
14.34217027;0.0002432;86.3998;342.6425;91.8181;268.3293;2.0501E-5;7.7E-7;0;Iridium
14.34217099;0.0002436;86.3998;342.4968;91.8573;268.2902;2.2524E-5;8.3E-7;0;Iridium
14.34217153;0.0002451;86.3997;342.2054;91.5287;268.6189;2.1934E-5;8.1E-7;0;Iridium
14.34217192;0.0002456;86.3996;342.0596;91.4069;268.7408;2.2079E-5;8.2E-7;0;Iridium
14.34217281;0.0002467;86.3995;341.7973;91.2282;268.9196;2.466E-5;8.9E-7;0;Iridium
14.34217342;0.0002469;86.3995;341.6516;91.1413;269.0066;2.5989E-5;9.3E-7;0;Iridium
14.34217408;0.0002472;86.3993;341.3601;90.8145;269.3334;2.4979E-5;9.0E-7;0;Iridium
14.34217455;0.0002475;86.3993;341.2144;90.7183;269.4297;2.6059E-5;9.3E-7;0;Iridium
14.34217455;0.0002477;86.3993;341.1269;90.639;269.509;2.2237E-5;8.2E-7;0;Iridium
14.34217495;0.0002479;86.3991;340.952;90.4084;269.7396;2.2198E-5;8.2E-7;0;Iridium
14.34217527;0.0002481;86.3991;340.8646;90.3853;269.7627;2.2523E-5;8.3E-7;0;Iridium
14.34217596;0.000248;86.3991;340.6897;90.179;269.969;2.3385E-5;8.5E-7;0;Iridium
14.34217596;0.000248;86.3991;340.6897;90.179;269.969;2.3385E-5;8.5E-7;0;Iridium
14.34217626;0.0002485;86.3989;340.5148;89.9959;270.1521;2.1873E-5;8.1E-7;0;Iridium
14.34217646;0.0002486;86.3989;340.4565;89.9952;270.1528;2.1778E-5;8.1E-7;0;Iridium
14.34217667;0.0002486;86.3989;340.3399;89.8978;270.2503;2.2196E-5;8.2E-7;0;Iridium
14.34217817;0.0002487;86.3987;340.0484;89.5079;270.6402;2.3799E-5;8.6E-7;0;Iridium
14.34217908;0.0002486;86.3986;339.8443;89.2576;270.8904;2.4555E-5;8.9E-7;0;Iridium
14.34217908;0.0002486;86.3986;339.8443;89.2576;270.8904;2.4555E-5;8.9E-7;0;Iridium
14.34217969;0.0002488;86.3985;339.6403;89.045;271.1031;2.3369E-5;8.5E-7;0;Iridium
14.34218098;0.0002488;86.3984;339.4362;88.9629;271.1852;2.6102E-5;9.3E-7;0;Iridium
14.34218179;0.0002489;86.3983;339.2029;88.7568;271.3913;2.4783E-5;8.9E-7;0;Iridium
14.34218193;0.0002485;86.3983;339.028;88.4127;271.7354;2.2254E-5;8.2E-7;0;Iridium
14.342183;0.0002489;86.3981;338.6199;88.3158;271.8323;2.0314E-5;7.7E-7;0;Iridium
14.34218347;0.0002497;86.398;338.3866;88.0529;272.0953;1.8465E-5;7.1E-7;0;Iridium
14.34218414;0.0002499;86.398;338.1824;87.9538;272.1944;1.8762E-5;7.2E-7;0;Iridium
14.34218455;0.0002512;86.3979;338.0076;88.1813;271.9671;1.8486E-5;7.2E-7;0;Iridium
14.34218462;0.0002513;86.3979;337.9492;88.1683;271.9801;1.7954E-5;7.0E-7;0;Iridium
14.34218598;0.0002518;86.3978;337.5701;87.9536;272.1948;1.9533E-5;7.4E-7;0;Iridium
14.34218598;0.0002518;86.3978;337.541;87.929;272.2194;1.9307E-5;7.4E-7;0;Iridium
14.34218765;0.0002522;86.3976;337.1328;86.9544;273.194;2.2339E-5;8.2E-7;0;Iridium
14.34218757;0.0002527;86.3976;337.1036;86.9994;273.1491;2.2037E-5;8.1E-7;0;Iridium
14.34218885;0.0002525;86.3975;336.7828;86.4138;273.7346;2.5017E-5;9.0E-7;0;Iridium
14.34218888;0.0002528;86.3974;336.7245;86.4138;273.7347;2.3778E-5;8.6E-7;0;Iridium
14.34218958;0.0002523;86.3974;336.4912;86.1666;273.9818;2.4937E-5;9.0E-7;0;Iridium
14.3421899;0.0002521;86.3973;336.287;85.9114;274.237;2.3706E-5;8.6E-7;0;Iridium
14.34219105;0.0002516;86.3971;335.8787;85.4507;274.6976;2.4138E-5;8.7E-7;0;Iridium
14.34219226;0.0002509;86.3969;335.4704;84.9286;275.2196;2.4308E-5;8.8E-7;0;Iridium
14.34219345;0.0002502;86.3968;335.0911;84.4655;275.6826;2.4382E-5;8.8E-7;0;Iridium
14.34219358;0.0002501;86.3968;335.0328;84.3985;275.7496;2.3934E-5;8.7E-7;0;Iridium
14.34215639;0.0002518;86.3967;334.6537;84.2018;275.9465;2.2398E-5;8.3E-7;0;Iridium
14.34215607;0.0002508;86.3963;334.2159;82.8122;277.3359;2.0018E-5;7.6E-7;0;Iridium
14.34215673;0.00025;86.3962;333.8075;82.3624;277.7855;5.9183E-6;3.6E-7;0;Iridium
14.34215714;0.0002506;86.3962;333.6908;83.1652;276.9828;5.9639E-6;3.6E-7;0;Iridium
14.34215839;0.0002494;86.396;333.4282;82.8085;277.3394;1.2959E-5;5.6E-7;0;Iridium
14.34215839;0.0002494;86.396;333.4282;82.8085;277.3394;1.2959E-5;5.6E-7;0;Iridium
14.3421588;0.0002488;86.396;333.2824;82.7129;277.435;1.4721E-5;6.1E-7;0;Iridium
14.3421595;0.0002479;86.3959;332.9906;82.3921;277.7556;1.3214E-5;5.7E-7;0;Iridium
14.34215988;0.0002476;86.3959;332.8739;82.309;277.8387;1.5375E-5;6.3E-7;0;Iridium
14.34216074;0.000247;86.3958;332.6113;81.9513;278.1963;1.633E-5;6.6E-7;0;Iridium
14.34216113;0.0002465;86.3957;332.4362;81.7604;278.3871;1.7003E-5;6.7E-7;0;Iridium
14.34216183;0.0002455;86.3956;332.1737;81.4296;278.7178;1.7023E-5;6.7E-7;0;Iridium
14.34216186;0.0002452;86.3956;332.1153;81.4151;278.7322;1.6709E-5;6.7E-7;0;Iridium
14.34216254;0.0002451;86.3956;332.0278;81.5027;278.6446;2.1167E-5;7.9E-7;0;Iridium
14.3421629;0.0002444;86.3955;331.736;81.2965;278.8508;1.7492E-5;6.9E-7;0;Iridium
14.34216306;0.0002441;86.3955;331.6193;81.2632;278.884;1.8227E-5;7.1E-7;0;Iridium
14.34216349;0.0002434;86.3954;331.3274;80.9751;279.172;1.5804E-5;6.4E-7;0;Iridium
14.34216399;0.0002429;86.3954;331.1815;80.8986;279.2484;1.943E-5;7.4E-7;0;Iridium
14.34216468;0.0002416;86.3953;330.8897;80.6288;279.5181;1.8906E-5;7.3E-7;0;Iridium
14.34216572;0.0002397;86.3952;330.5103;80.2715;279.8751;2.0907E-5;7.8E-7;0;Iridium
14.34216566;0.0002396;86.3952;330.452;80.1864;279.9603;1.9472E-5;7.4E-7;0;Iridium
14.34216709;0.000238;86.395;330.1017;79.9293;280.2171;2.2956E-5;8.4E-7;0;Iridium
14.34216736;0.000237;86.395;329.9266;79.8619;280.2844;2.2894E-5;8.4E-7;0;Iridium
14.34216864;0.000236;86.3949;329.664;79.6386;280.5076;2.4283E-5;8.8E-7;0;Iridium
14.34216869;0.0002359;86.3949;329.6348;79.6307;280.5155;2.4007E-5;8.7E-7;0;Iridium
14.34217027;0.0002342;86.3947;329.2554;79.4163;280.7296;2.5732E-5;9.2E-7;0;Iridium
14.34217014;0.0002341;86.3947;329.2262;79.4829;280.663;2.4258E-5;8.8E-7;0;Iridium
14.34217134;0.0002323;86.3946;328.8176;79.5382;280.6076;2.2634E-5;8.3E-7;0;Iridium
14.34217134;0.0002323;86.3946;328.8176;79.5382;280.6076;2.2634E-5;8.3E-7;0;Iridium
14.34217166;0.0002315;86.3946;328.6717;79.571;280.5746;2.2591E-5;8.3E-7;0;Iridium
14.34217184;0.0002309;86.3945;328.3798;79.4619;280.6837;1.7368E-5;6.8E-7;0;Iridium
14.34217203;0.0002303;86.3945;328.263;79.5864;280.5591;1.756E-5;6.9E-7;0;Iridium
14.34217176;0.0002297;86.3944;328.0003;79.6085;280.537;1.164E-5;5.2E-7;0;Iridium
14.34217156;0.0002299;86.3944;327.9711;80.1062;280.0393;1.0081E-5;4.8E-7;0;Iridium
14.3421711;0.0002278;86.3943;327.5916;79.5127;280.6326;4.9099E-6;3.4E-7;0;Iridium
14.3421707;0.0002263;86.3943;327.4164;79.4432;280.7019;2.4179E-6;2.7E-7;0;Iridium
14.34217054;0.0002253;86.3942;327.1829;79.1765;280.9684;3.2874E-7;2.1E-7;0;Iridium
14.34216976;0.0002229;86.3942;326.7159;78.6127;281.532;-3.6695E-6;1.0E-7;0;Iridium
14.3421693;0.0002157;86.394;326.3365;74.7359;285.4075;-2.0712E-6;1.4E-7;0;Iridium
14.34216917;0.0002147;86.3939;326.1614;74.5896;285.5537;-2.2194E-6;1.4E-7;0;Iridium
14.34216881;0.0002137;86.3939;325.8986;74.6743;285.4689;-3.6508E-6;1.0E-7;0;Iridium
14.34216869;0.0002128;86.3938;325.7527;74.6333;285.5098;-3.7026E-6;9.0E-8;0;Iridium
14.34216881;0.0002118;86.3937;325.4899;74.8643;285.2787;-2.992E-6;1.1E-7;0;Iridium
